SARSAT 7 (NOAA 15)      
1 25338U 98030A   25078.56137752  .00000533  00000+0  23715-3 0  9990
2 25338  98.5447 105.6344 0009324 235.2424 124.7880 14.26913983396456
GPS BIIR-08             
1 27663U 03005A   25078.41499779  .00000041  00000+0  00000+0 0  9997
2 27663  55.0042 233.0426 0143468  49.8736 320.8756  2.00559278162193
GPS BIIR-11             
1 28190U 04009A   25076.63361419 -.00000026  00000+0  00000+0 0  9993
2 28190  55.2165 294.0865 0101788 157.3926 162.3344  2.00570212153818
GPS BIIR-13             
1 28474U 04045A   25078.61645311 -.00000088  00000+0  00000+0 0  9992
2 28474  55.3542 343.1740 0163954 301.3506  67.5608  2.00657875149319
SARSAT 10 (NOAA 18)     
1 28654U 05018A   25078.44459772  .00000547  00000+0  31370-3 0  9995
2 28654  98.8458 158.8376 0014011   7.1884 352.9487 14.13546849 22065
GPS BIIR-14M            
1 28874U 05038A   25077.64215939 -.00000015  00000+0  00000+0 0  9990
2 28874  55.2605 291.5162 0133370 289.6057  64.5993  2.00566806142695
METEOSAT-9 (MSG-2)      
1 28912U 05049B   25078.05019514  .00000134  00000+0  00000+0 0  9993
2 28912   8.3208  58.4568 0000364  11.2147 170.9270  1.00269264  2446
GOES 13                 
1 29155U 06018A   25078.38810170 -.00000173  00000+0  00000+0 0  9997
2 29155   3.3454  81.9610 0065877 262.7769 281.9822  0.98832071 38753
GPS BIIR-16M            
1 29601U 06052A   25077.71648508  .00000036  00000+0  00000+0 0  9998
2 29601  55.0436 232.0686 0087591  85.2017 275.7614  2.00557687134272
GPS BIIR-17M            
1 32260U 07047A   25078.02586274  .00000010  00000+0  00000+0 0  9996
2 32260  53.7696  98.8645 0159080  80.0213 281.8228  2.00551341127684
GPS BIIR-18M            
1 32384U 07062A   25078.08649576 -.00000012  00000+0  00000+0 0  9994
2 32384  55.4052 292.4032 0029718 153.4625  19.9251  2.00562640126380
SARSAT 12 (NOAA 19)     
1 33591U 09005A   25078.57918925  .00000484  00000+0  28235-3 0  9991
2 33591  99.0063 142.7962 0013076 232.3797 127.6189 14.13313788830263
GOES 14                 
1 35491U 09033A   25078.49333927 -.00000061  00000+0  00000+0 0  9995
2 35491   0.5009  89.2616 0000370 182.7392 334.7385  1.00269843  2033
GOES 15                 
1 36411U 10008A   25078.48180087  .00000046  00000+0  00000+0 0  9990
2 36411   0.0997  89.5288 0003097 194.9615 127.4906  1.00272156 55076
GSAT0101 (GALILEO-PFM)  
1 37846U 11060A   25060.06079426 -.00000084  00000+0  00000+0 0  9994
2 37846  57.1140 354.5841 0004142 343.0067  16.9840  1.70475553 83187
GSAT0102 (GALILEO-FM2)  
1 37847U 11060B   25075.40094191 -.00000099  00000+0  00000+0 0  9991
2 37847  57.1093 354.1692 0005255 341.6512 118.2181  1.70476025 83325
LUCH 5A                 
1 37951U 11074B   25078.52204001 -.00000041  00000+0  00000+0 0  9998
2 37951   7.5922  80.6315 0002487 271.3014 180.1821  1.00273274 48496
METEOSAT-10 (MSG-3)     
1 38552U 12035B   25078.32685104  .00000003  00000+0  00000+0 0  9996
2 38552   3.5960  62.0261 0001531 268.2907 324.5336  1.00275803 46292
SARSAT 13 (METOP-B)     
1 38771U 12049A   25078.60533940  .00000442  00000+0  22193-3 0  9993
2 38771  98.5881 135.0892 0000802 141.2402 218.8833 14.21456031648681
GPS BIIF-3              
1 38833U 12053A   25078.11866752  .00000011  00000+0  00000+0 0  9994
2 38833  53.5275 162.2313 0163352  59.9370 301.7254  2.00561902 90315
GSAT0103 (GALILEO-FM3)  
1 38857U 12055A   25077.69809292  .00000033  00000+0  00000+0 0  9994
2 38857  55.5383 114.0565 0005700 277.9791  82.0305  1.70473586 77247
GPS BIIF-4              
1 39166U 13023A   25077.98119365 -.00000006  00000+0  00000+0 0  9992
2 39166  54.8752 287.4744 0132991  46.9529 314.1809  2.00561858 86740
INSAT-3D                
1 39216U 13038B   25078.49535190 -.00000332  00000+0  00000+0 0  9991
2 39216   0.7473  88.7605 0001822 265.4253 130.9728  1.00271589 42524
GPS BIIF-5              
1 39533U 14008A   25078.47923584  .00000010  00000+0  00000+0 0  9999
2 39533  53.6077 167.8569 0076778 223.2338 136.2047  2.00558091 80565
LUCH 5V                 
1 39727U 14023A   25078.48840148 -.00000261  00000+0  00000+0 0  9995
2 39727   3.9941  73.9623 0002959 297.3866  76.4849  1.00271157 39804
GPS BIIF-6              
1 39741U 14026A   25078.26550855 -.00000091  00000+0  00000+0 0  9994
2 39741  56.6689 349.2041 0036590 318.7798  40.9791  2.00580610 79418
GPS BIIF-7              
1 40105U 14045A   25078.34643866  .00000017  00000+0  00000+0 0  9992
2 40105  55.0669 106.6109 0028065 118.2041 242.1394  2.00555077 76957
GSAT0201 (GALILEO 5)    
1 40128U 14050A   25073.66068734 -.00000049  00000+0  00000+0 0  9994
2 40128  49.3736 292.1527 1622536 161.6352 204.9868  1.85519883 69792
GSAT0202 (GALILEO 6)    
1 40129U 14050B   25076.61287520 -.00000039  00000+0  00000+0 0  9998
2 40129  49.3870 291.1136 1622563 162.5299 203.7838  1.85520556 71973
GPS BIIF-8              
1 40294U 14068A   25078.21799926 -.00000040  00000+0  00000+0 0  9998
2 40294  56.6536  48.5374 0056677  63.6648 296.9049  2.00577406 76088
GLONASS-K 2             
1 40315U 14075A   25077.64983979  .00000035  00000+0  00000+0 0  9992
2 40315  63.6173 206.1463 0020020 205.9812 153.9018  2.13101407 80143
GPS BIIF-9              
1 40534U 15013A   25077.36329396  .00000028  00000+0  00000+0 0  9996
2 40534  53.2616 223.0377 0097666  34.6051 325.9869  2.00548781 72688
GSAT0203 (GALILEO 7)    
1 40544U 15017A   25078.02376865 -.00000091  00000+0  00000+0 0  9999
2 40544  56.9027 353.9947 0004322 295.1767  64.8044  1.70475851 61445
GSAT0204 (GALILEO 8)    
1 40545U 15017B   25077.10541200 -.00000094  00000+0  00000+0 0  9998
2 40545  56.9092 354.0363 0003778 283.8463  76.1362  1.70475554 24474
GPS BIIF-10             
1 40730U 15033A   25078.52075366  .00000000  00000+0  00000+0 0  9990
2 40730  54.3553 285.7900 0104584  24.0164 336.4922  2.00552887 70879
METEOSAT-11 (MSG-4)     
1 40732U 15034A   25078.32858865  .00000069  00000+0  00000+0 0  9999
2 40732   2.0638  72.1866 0000813 297.0590 295.3397  1.00269807  2655
GSAT0205 (GALILEO 9)    
1 40889U 15045A   25078.04690218  .00000030  00000+0  00000+0 0  9997
2 40889  55.1001 234.1739 0005603  48.8871 311.1122  1.70473874 59255
GSAT0206 (GALILEO 10)   
1 40890U 15045B   25075.92117292  .00000018  00000+0  00000+0 0  9995
2 40890  55.1036 234.2280 0003612  51.4740 308.4997  1.70473840 59241
GPS BIIF-11             
1 41019U 15062A   25078.07787056 -.00000042  00000+0  00000+0 0  9996
2 41019  56.6311  48.3987 0102986 228.6142 130.4875  2.00566833 68701
ELEKTRO-L 2             
1 41105U 15074A   25078.32389711 -.00000108  00000+0  00000+0 0  9992
2 41105   5.5422  76.1100 0002730 232.9676 330.1097  1.00272402 33943
GSAT0209 (GALILEO 12)   
1 41174U 15079A   25076.67656298  .00000032  00000+0  00000+0 0  9991
2 41174  55.5591 113.7963 0004964 313.0034  47.0333  1.70474731 56999
GSAT0208 (GALILEO 11)   
1 41175U 15079B   25076.89650625  .00000032  00000+0  00000+0 0  9994
2 41175  55.5562 113.7876 0004371 312.6856  47.3550  1.70474595 57410
GPS BIIF-12             
1 41328U 16007A   25078.16363381  .00000017  00000+0  00000+0 0  9991
2 41328  55.2529 107.5213 0087141 241.6747 117.5034  2.00574097 66714
GSAT0211 (GALILEO 14)   
1 41549U 16030A   25078.19327254  .00000031  00000+0  00000+0 0  9990
2 41549  55.2518 234.2061 0003138  23.5776 336.3885  1.70473943 54917
GSAT0210 (GALILEO 13)   
1 41550U 16030B   25075.51812098  .00000016  00000+0  00000+0 0  9993
2 41550  55.2502 234.2780 0001435 184.0429 175.8960  1.70474074 54866
INSAT-3DR               
1 41752U 16054A   25078.48432039 -.00000070  00000+0  00000+0 0  9996
2 41752   0.0603  94.8564 0011960 187.3908 143.3531  1.00271726 31256
GSAT0207 (GALILEO 15)   
1 41859U 16069A   25077.55658966  .00000032  00000+0  00000+0 0  9993
2 41859  55.2251 113.7065 0005385 300.0955  59.9256  1.70474610 51636
GSAT0212 (GALILEO 16)   
1 41860U 16069B   25076.82398404  .00000031  00000+0  00000+0 0  9991
2 41860  55.2222 113.7227 0003735 321.7790  38.2721  1.70474845 51873
GSAT0213 (GALILEO 17)   
1 41861U 16069C   25077.77867901  .00000033  00000+0  00000+0 0  9992
2 41861  55.2249 113.7036 0005568 285.2085  74.8035  1.70475107 51751
GSAT0214 (GALILEO 18)   
1 41862U 16069D   25077.33762818  .00000032  00000+0  00000+0 0  9995
2 41862  55.2235 113.7088 0004547 287.0191  73.0064  1.70474940 51878
GOES 16                 
1 41866U 16071A   25078.39979889 -.00000240  00000+0  00000+0 0  9999
2 41866   0.0889 285.7614 0001998  92.7265 227.2244  1.00267126 30543
GSAT-17                 
1 42815U 17040B   25078.40327245 -.00000251  00000+0  00000+0 0  9998
2 42815   0.0179 160.0363 0003857 133.4114 122.3928  1.00272144 28220
GSAT0215 (GALILEO 19)   
1 43055U 17079A   25077.24113721  .00000026  00000+0  00000+0 0  9999
2 43055  55.2301 234.0502 0000329  26.4094 333.5392  1.70474603 45212
GSAT0216 (GALILEO 20)   
1 43056U 17079B   25078.11920801  .00000031  00000+0  00000+0 0  9998
2 43056  55.2299 234.0261 0001547 308.1580  51.7794  1.70474746 45240
GSAT0217 (GALILEO 21)   
1 43057U 17079C   25076.58004196  .00000022  00000+0  00000+0 0  9998
2 43057  55.2272 234.0669 0001805 351.5913   8.3495  1.70474624 45200
GSAT0218 (GALILEO 22)   
1 43058U 17079D   25077.38667318  .00000027  00000+0  00000+0 0  9994
2 43058  55.2286 234.0421 0001859 293.6512  66.2770  1.70474639 45241
GOES 17                 
1 43226U 18022A   25078.49712984 -.00000085  00000+0  00000+0 0  9998
2 43226   0.0565 298.8003 0001877 139.1780 173.8607  1.00272424 25862
GSAT0221 (GALILEO 25)   
1 43564U 18060A   25076.11529864 -.00000097  00000+0  00000+0 0  9998
2 43564  57.2836 354.1161 0005035 309.8551  50.1231  1.70475623 41372
GSAT0222 (GALILEO 26)   
1 43565U 18060B   25078.09396760 -.00000090  00000+0  00000+0 0  9998
2 43565  57.2866 354.0651 0004237 281.2217  78.7568  1.70475320 41456
GSAT0219 (GALILEO 23)   
1 43566U 18060C   25071.27642253 -.00000111  00000+0  00000+0 0  9997
2 43566  57.2867 354.2510 0004780 325.0073  34.9676  1.70475353 41319
